QIANFAN-49              
1 62250U 24232P   25223.52226023  .00000041  00000+0  44944-4 0  9997
2 62250  88.9930  53.6847 0013922 183.3735 176.7325 13.50956770 51206
QIANFAN-50              
1 62251U 24232Q   25223.54712438  .00000035  00000+0  35034-4 0  9993
2 62251  88.9936  53.6835 0015521 185.5264 174.5719 13.50963424 51238
QIANFAN-51              
1 62252U 24232R   25223.23439301  .00000044  00000+0  49068-4 0  9997
2 62252  88.9929  53.7169 0012872 188.8399 171.2528 13.50958968 51186
QIANFAN-52              
1 62253U 24232S   25223.55943657  .00000056  00000+0  67870-4 0  9991
2 62253  88.9926  53.5621 0015158 181.1449 178.9670 13.50960257 51318
QIANFAN-53              
1 62254U 24232T   25223.53891534  .00000035  00000+0  34910-4 0  9992
2 62254  88.9933  53.6595 0014001 181.7260 178.3845 13.50964525 51276
QIANFAN-54              
1 62255U 24232U   25223.28372522  .00000030  00000+0  28551-4 0  9995
2 62255  88.9924  53.3746 0001293 165.4005 194.7184 13.50952592 82742
QIANFAN-55              
1 62785U 25016A   25223.53187399  .00000120  00000+0  16672-3 0  9998
2 62785  88.9836 115.9239 0017593 351.6039   8.4815 13.50965673 30558
QIANFAN-56              
1 62786U 25016B   25223.25213066  .00000137  00000+0  19359-3 0  9992
2 62786  88.9810 115.8227 0016375 355.3503   4.7493 13.50957302 30563
